ONEWEB-0683             
1 56719U 23068K   25262.06314926  .00000179  00000+0  44102-3 0  9995
2 56719  87.9023 313.2835 0002161 100.9763 259.1611 13.15549593113779
ONEWEB-0684             
1 56720U 23068L   25262.07105905  .00000161  00000+0  39334-3 0  9995
2 56720  87.9014 313.2800 0000964 143.2308 216.8888 13.15550110113602
ONEWEB-0686             
1 56721U 23068M   25262.01050554  .00000008  00000+0 -11929-4 0  9991
2 56721  87.8968 282.8440 0001992 103.0037 257.1316 13.16592397116034
ONEWEB-0694             
1 56722U 23068N   25262.05326877  .00000124  00000+0  28960-3 0  9990
2 56722  87.8986 282.7666 0002308  96.4264 263.7130 13.16593513116097
ONEWEB-0696             
1 56723U 23068P   25262.10433296 -.00000104  00000+0 -30991-3 0  9998
2 56723  87.9029 313.3263 0001580  98.8147 261.3163 13.15549643113729
ONEWEB-0703             
1 56724U 23068Q   25262.11383825  .00000090  00000+0  20387-3 0  9992
2 56724  87.9010 313.3109 0001101  69.8770 290.2479 13.15549963113612
ONEWEB-0721             
1 56725U 23068R   25261.82383843  .00000003  00000+0 -27727-4 0  9991
2 56725  86.6873 172.0296 0001800  72.0219 288.1110 13.22445052122073
ONEWEB-0015             
1 61594U 24188A   25262.22703363  .00000245  00000+0  65549-3 0  9993
2 61594  87.8785  75.0794 0002211  78.0609 282.0767 13.11418966 48945
