<?xml version="1.0" encoding="UTF-8"?>
<ndm xmlns:xsi="http://www.w3.org/2001/XMLSchema-instance" xsi:noNamespaceSchemaLocation="https://sanaregistry.org/r/ndmxml_unqualified/ndmxml-2.0.0-master-2.0.xsd">
<omm id="CCSDS_OMM_VERS" version="2.0">
<header><CREATION_DATE/><ORIGINATOR/></header><body><segment><metadata><OBJECT_NAME>ONEWEB-0683</OBJECT_NAME><OBJECT_ID>2023-068K</OBJECT_ID><CENTER_NAME>EARTH</CENTER_NAME><REF_FRAME>TEME</REF_FRAME><TIME_SYSTEM>UTC</TIME_SYSTEM><MEAN_ELEMENT_THEORY>SGP4</MEAN_ELEMENT_THEORY></metadata><data><meanElements><EPOCH>2025-09-19T01:30:56.096064</EPOCH><MEAN_MOTION>13.15549593</MEAN_MOTION><ECCENTRICITY>.00021619</ECCENTRICITY><INCLINATION>87.9023</INCLINATION><RA_OF_ASC_NODE>313.2835</RA_OF_ASC_NODE><ARG_OF_PERICENTER>100.9763</ARG_OF_PERICENTER><MEAN_ANOMALY>259.1611</MEAN_ANOMALY></meanElements><tleParameters><EPHEMERIS_TYPE>0</EPHEMERIS_TYPE><CLASSIFICATION_TYPE>U</CLASSIFICATION_TYPE><NORAD_CAT_ID>56719</NORAD_CAT_ID><ELEMENT_SET_NO>999</ELEMENT_SET_NO><REV_AT_EPOCH>11377</REV_AT_EPOCH><BSTAR>.44102447E-3</BSTAR><MEAN_MOTION_DOT>.179E-5</MEAN_MOTION_DOT><MEAN_MOTION_DDOT>0</MEAN_MOTION_DDOT></tleParameters></data></segment></body></omm>
<omm id="CCSDS_OMM_VERS" version="2.0">
<header><CREATION_DATE/><ORIGINATOR/></header><body><segment><metadata><OBJECT_NAME>ONEWEB-0684</OBJECT_NAME><OBJECT_ID>2023-068L</OBJECT_ID><CENTER_NAME>EARTH</CENTER_NAME><REF_FRAME>TEME</REF_FRAME><TIME_SYSTEM>UTC</TIME_SYSTEM><MEAN_ELEMENT_THEORY>SGP4</MEAN_ELEMENT_THEORY></metadata><data><meanElements><EPOCH>2025-09-19T01:42:19.501920</EPOCH><MEAN_MOTION>13.15550110</MEAN_MOTION><ECCENTRICITY>.00009648</ECCENTRICITY><INCLINATION>87.9014</INCLINATION><RA_OF_ASC_NODE>313.2800</RA_OF_ASC_NODE><ARG_OF_PERICENTER>143.2308</ARG_OF_PERICENTER><MEAN_ANOMALY>216.8888</MEAN_ANOMALY></meanElements><tleParameters><EPHEMERIS_TYPE>0</EPHEMERIS_TYPE><CLASSIFICATION_TYPE>U</CLASSIFICATION_TYPE><NORAD_CAT_ID>56720</NORAD_CAT_ID><ELEMENT_SET_NO>999</ELEMENT_SET_NO><REV_AT_EPOCH>11360</REV_AT_EPOCH><BSTAR>.39333579E-3</BSTAR><MEAN_MOTION_DOT>.161E-5</MEAN_MOTION_DOT><MEAN_MOTION_DDOT>0</MEAN_MOTION_DDOT></tleParameters></data></segment></body></omm>
<omm id="CCSDS_OMM_VERS" version="2.0">
<header><CREATION_DATE/><ORIGINATOR/></header><body><segment><metadata><OBJECT_NAME>ONEWEB-0686</OBJECT_NAME><OBJECT_ID>2023-068M</OBJECT_ID><CENTER_NAME>EARTH</CENTER_NAME><REF_FRAME>TEME</REF_FRAME><TIME_SYSTEM>UTC</TIME_SYSTEM><MEAN_ELEMENT_THEORY>SGP4</MEAN_ELEMENT_THEORY></metadata><data><meanElements><EPOCH>2025-09-19T00:15:07.678656</EPOCH><MEAN_MOTION>13.16592397</MEAN_MOTION><ECCENTRICITY>.00019922</ECCENTRICITY><INCLINATION>87.8968</INCLINATION><RA_OF_ASC_NODE>282.8440</RA_OF_ASC_NODE><ARG_OF_PERICENTER>103.0037</ARG_OF_PERICENTER><MEAN_ANOMALY>257.1316</MEAN_ANOMALY></meanElements><tleParameters><EPHEMERIS_TYPE>0</EPHEMERIS_TYPE><CLASSIFICATION_TYPE>U</CLASSIFICATION_TYPE><NORAD_CAT_ID>56721</NORAD_CAT_ID><ELEMENT_SET_NO>999</ELEMENT_SET_NO><REV_AT_EPOCH>11603</REV_AT_EPOCH><BSTAR>-.11929148E-4</BSTAR><MEAN_MOTION_DOT>.8E-7</MEAN_MOTION_DOT><MEAN_MOTION_DDOT>0</MEAN_MOTION_DDOT></tleParameters></data></segment></body></omm>
<omm id="CCSDS_OMM_VERS" version="2.0">
<header><CREATION_DATE/><ORIGINATOR/></header><body><segment><metadata><OBJECT_NAME>ONEWEB-0694</OBJECT_NAME><OBJECT_ID>2023-068N</OBJECT_ID><CENTER_NAME>EARTH</CENTER_NAME><REF_FRAME>TEME</REF_FRAME><TIME_SYSTEM>UTC</TIME_SYSTEM><MEAN_ELEMENT_THEORY>SGP4</MEAN_ELEMENT_THEORY></metadata><data><meanElements><EPOCH>2025-09-19T01:16:42.421728</EPOCH><MEAN_MOTION>13.16593513</MEAN_MOTION><ECCENTRICITY>.00023088</ECCENTRICITY><INCLINATION>87.8986</INCLINATION><RA_OF_ASC_NODE>282.7666</RA_OF_ASC_NODE><ARG_OF_PERICENTER>96.4264</ARG_OF_PERICENTER><MEAN_ANOMALY>263.7130</MEAN_ANOMALY></meanElements><tleParameters><EPHEMERIS_TYPE>0</EPHEMERIS_TYPE><CLASSIFICATION_TYPE>U</CLASSIFICATION_TYPE><NORAD_CAT_ID>56722</NORAD_CAT_ID><ELEMENT_SET_NO>999</ELEMENT_SET_NO><REV_AT_EPOCH>11609</REV_AT_EPOCH><BSTAR>.28960365E-3</BSTAR><MEAN_MOTION_DOT>.124E-5</MEAN_MOTION_DOT><MEAN_MOTION_DDOT>0</MEAN_MOTION_DDOT></tleParameters></data></segment></body></omm>
<omm id="CCSDS_OMM_VERS" version="2.0">
<header><CREATION_DATE/><ORIGINATOR/></header><body><segment><metadata><OBJECT_NAME>ONEWEB-0696</OBJECT_NAME><OBJECT_ID>2023-068P</OBJECT_ID><CENTER_NAME>EARTH</CENTER_NAME><REF_FRAME>TEME</REF_FRAME><TIME_SYSTEM>UTC</TIME_SYSTEM><MEAN_ELEMENT_THEORY>SGP4</MEAN_ELEMENT_THEORY></metadata><data><meanElements><EPOCH>2025-09-19T02:30:14.367744</EPOCH><MEAN_MOTION>13.15549643</MEAN_MOTION><ECCENTRICITY>.00015804</ECCENTRICITY><INCLINATION>87.9029</INCLINATION><RA_OF_ASC_NODE>313.3263</RA_OF_ASC_NODE><ARG_OF_PERICENTER>98.8147</ARG_OF_PERICENTER><MEAN_ANOMALY>261.3163</MEAN_ANOMALY></meanElements><tleParameters><EPHEMERIS_TYPE>0</EPHEMERIS_TYPE><CLASSIFICATION_TYPE>U</CLASSIFICATION_TYPE><NORAD_CAT_ID>56723</NORAD_CAT_ID><ELEMENT_SET_NO>999</ELEMENT_SET_NO><REV_AT_EPOCH>11372</REV_AT_EPOCH><BSTAR>-.30991334E-3</BSTAR><MEAN_MOTION_DOT>-.104E-5</MEAN_MOTION_DOT><MEAN_MOTION_DDOT>0</MEAN_MOTION_DDOT></tleParameters></data></segment></body></omm>
<omm id="CCSDS_OMM_VERS" version="2.0">
<header><CREATION_DATE/><ORIGINATOR/></header><body><segment><metadata><OBJECT_NAME>ONEWEB-0703</OBJECT_NAME><OBJECT_ID>2023-068Q</OBJECT_ID><CENTER_NAME>EARTH</CENTER_NAME><REF_FRAME>TEME</REF_FRAME><TIME_SYSTEM>UTC</TIME_SYSTEM><MEAN_ELEMENT_THEORY>SGP4</MEAN_ELEMENT_THEORY></metadata><data><meanElements><EPOCH>2025-09-19T02:43:55.624800</EPOCH><MEAN_MOTION>13.15549963</MEAN_MOTION><ECCENTRICITY>.00011012</ECCENTRICITY><INCLINATION>87.9010</INCLINATION><RA_OF_ASC_NODE>313.3109</RA_OF_ASC_NODE><ARG_OF_PERICENTER>69.8770</ARG_OF_PERICENTER><MEAN_ANOMALY>290.2479</MEAN_ANOMALY></meanElements><tleParameters><EPHEMERIS_TYPE>0</EPHEMERIS_TYPE><CLASSIFICATION_TYPE>U</CLASSIFICATION_TYPE><NORAD_CAT_ID>56724</NORAD_CAT_ID><ELEMENT_SET_NO>999</ELEMENT_SET_NO><REV_AT_EPOCH>11361</REV_AT_EPOCH><BSTAR>.2038675E-3</BSTAR><MEAN_MOTION_DOT>.9E-6</MEAN_MOTION_DOT><MEAN_MOTION_DDOT>0</MEAN_MOTION_DDOT></tleParameters></data></segment></body></omm>
<omm id="CCSDS_OMM_VERS" version="2.0">
<header><CREATION_DATE/><ORIGINATOR/></header><body><segment><metadata><OBJECT_NAME>ONEWEB-0721</OBJECT_NAME><OBJECT_ID>2023-068R</OBJECT_ID><CENTER_NAME>EARTH</CENTER_NAME><REF_FRAME>TEME</REF_FRAME><TIME_SYSTEM>UTC</TIME_SYSTEM><MEAN_ELEMENT_THEORY>SGP4</MEAN_ELEMENT_THEORY></metadata><data><meanElements><EPOCH>2025-09-18T19:46:19.640352</EPOCH><MEAN_MOTION>13.22445052</MEAN_MOTION><ECCENTRICITY>.00018007</ECCENTRICITY><INCLINATION>86.6873</INCLINATION><RA_OF_ASC_NODE>172.0296</RA_OF_ASC_NODE><ARG_OF_PERICENTER>72.0219</ARG_OF_PERICENTER><MEAN_ANOMALY>288.1110</MEAN_ANOMALY></meanElements><tleParameters><EPHEMERIS_TYPE>0</EPHEMERIS_TYPE><CLASSIFICATION_TYPE>U</CLASSIFICATION_TYPE><NORAD_CAT_ID>56725</NORAD_CAT_ID><ELEMENT_SET_NO>999</ELEMENT_SET_NO><REV_AT_EPOCH>12207</REV_AT_EPOCH><BSTAR>-.27726941E-4</BSTAR><MEAN_MOTION_DOT>.3E-7</MEAN_MOTION_DOT><MEAN_MOTION_DDOT>0</MEAN_MOTION_DDOT></tleParameters></data></segment></body></omm>
<omm id="CCSDS_OMM_VERS" version="2.0">
<header><CREATION_DATE/><ORIGINATOR/></header><body><segment><metadata><OBJECT_NAME>ONEWEB-0015</OBJECT_NAME><OBJECT_ID>2024-188A</OBJECT_ID><CENTER_NAME>EARTH</CENTER_NAME><REF_FRAME>TEME</REF_FRAME><TIME_SYSTEM>UTC</TIME_SYSTEM><MEAN_ELEMENT_THEORY>SGP4</MEAN_ELEMENT_THEORY></metadata><data><meanElements><EPOCH>2025-09-19T05:26:55.705632</EPOCH><MEAN_MOTION>13.11418966</MEAN_MOTION><ECCENTRICITY>.00022118</ECCENTRICITY><INCLINATION>87.8785</INCLINATION><RA_OF_ASC_NODE>75.0794</RA_OF_ASC_NODE><ARG_OF_PERICENTER>78.0609</ARG_OF_PERICENTER><MEAN_ANOMALY>282.0767</MEAN_ANOMALY></meanElements><tleParameters><EPHEMERIS_TYPE>0</EPHEMERIS_TYPE><CLASSIFICATION_TYPE>U</CLASSIFICATION_TYPE><NORAD_CAT_ID>61594</NORAD_CAT_ID><ELEMENT_SET_NO>999</ELEMENT_SET_NO><REV_AT_EPOCH>4894</REV_AT_EPOCH><BSTAR>.65548894E-3</BSTAR><MEAN_MOTION_DOT>.245E-5</MEAN_MOTION_DOT><MEAN_MOTION_DDOT>0</MEAN_MOTION_DDOT></tleParameters></data></segment></body></omm>

</ndm>
